{
    "links": {
        "self": "http://www.neowsapp.com/rest/v1/neo/3837779?api_key=iIulBulltgU6a56xZRHN4H3l9WmuAYTsLGpBGhQ2"
    },
    "id": "3837779",
    "neo_reference_id": "3837779",
    "name": "(2019 AL8)",
    "designation": "2019 AL8",
    "nasa_jpl_url": "http://ssd.jpl.nasa.gov/sbdb.cgi?sstr=3837779",
    "absolute_magnitude_h": 24.2,
    "estimated_diameter": {
        "kilometers": {
            "estimated_diameter_min": 0.0384197891,
            "estimated_diameter_max": 0.0859092601
        },
        "meters": {
            "estimated_diameter_min": 38.4197891064,
            "estimated_diameter_max": 85.9092601232
        },
        "miles": {
            "estimated_diameter_min": 0.0238729428,
            "estimated_diameter_max": 0.0533815229
        },
        "feet": {
            "estimated_diameter_min": 126.0491808919,
            "estimated_diameter_max": 281.8545369825
        }
    },
    "is_potentially_hazardous_asteroid": false,
    "close_approach_data": [
        {
            "close_approach_date": "2018-12-27",
            "close_approach_date_full": "2018-Dec-27 19:38",
            "epoch_date_close_approach": 1545939480000,
            "relative_velocity": {
                "kilometers_per_second": "12.1638829691",
                "kilometers_per_hour": "43789.9786886977",
                "miles_per_hour": "27209.3898135411"
            },
            "miss_distance": {
                "astronomical": "0.0846893826",
                "lunar": "32.9441698314",
                "kilometers": "12669351.248575062",
                "miles": "7872369.8192253756"
            },
            "orbiting_body": "Earth"
        }
    ],
    "orbital_data": {
        "orbit_id": "2",
        "orbit_determination_date": "2019-01-13 08:00:49",
        "first_observation_date": "2019-01-09",
        "last_observation_date": "2019-01-12",
        "data_arc_in_days": 3,
        "observations_used": 23,
        "orbit_uncertainty": "9",
        "minimum_orbit_intersection": ".0749132",
        "jupiter_tisserand_invariant": "3.012",
        "epoch_osculation": "2458495.5",
        "eccentricity": ".6143583271342566",
        "semi_major_axis": "2.714340777146847",
        "inclination": "16.19520314575575",
        "ascending_node_longitude": "96.52832971953822",
        "orbital_period": "1633.409147801274",
        "perihelion_distance": "1.046762918026612",
        "perihelion_argument": "343.7132069209121",
        "aphelion_distance": "4.381918636267083",
        "perihelion_time": "2458468.929053537038",
        "mean_anomaly": "5.856181679613131",
        "mean_motion": ".2203979330497779",
        "equinox": "J2000",
        "orbit_class": {
            "orbit_class_type": "AMO",
            "orbit_class_description": "Near-Earth asteroid orbits similar to that of 1221 Amor",
            "orbit_class_range": "1.017 AU < q (perihelion) < 1.3 AU"
        }
    },
    "is_sentry_object": false
}